1 44942U 20001AE  23094.35008787  .00012067  00000-0  57001-3 0  9994
2 44942  53.0504  79.7707 0005029  45.4351 314.7054 15.19820195178974
1 44942U 20001AE  23094.67888942  .00010992  00000-0  52056-3 0  9998
2 44942  53.0505  78.2637 0005077  46.0982 314.0431 15.19826324179020
1 44942U 20001AE  23095.33648759  .00010834  00000-0  51307-3 0  9995
2 44942  53.0504  75.2494 0005130  47.5798 312.5630 15.19841212179126
1 44942U 20001AE  23095.66528448  .00010634  00000-0  50377-3 0  9997
2 44942  53.0504  73.7426 0005189  48.1465 311.9972 15.19847986179177
1 44942U 20001AE  23095.66528448  .00010634  00000-0  50377-3 0  9997
2 44942  53.0504  73.7426 0005189  48.1465 311.9972 15.19847986179177
1 44942U 20001AE  23096.32287329  .00010365  00000-0  49123-3 0  9999
2 44942  53.0508  70.7279 0005211  50.0079 310.1373 15.19862262179274
1 44942U 20001AE  23096.65166546  .00010250  00000-0  48584-3 0  9995
2 44942  53.0508  69.2212 0005269  50.6114 309.5347 15.19869277179325
1 44942U 20001AE  23097.17772972  .00010956  00000-0  51807-3 0  9994
2 44942  53.0511  66.8099 0005338  51.7776 308.3699 15.19881646179408
1 44942U 20001AE  23097.30924504  .00011208  00000-0  52953-3 0  9993
2 44942  53.0512  66.2069 0005340  52.2226 307.9252 15.19884948179429
1 44942U 20001AE  23098.29560267  .00010156  00000-0  48101-3 0  9995
2 44942  53.0517  61.6857 0005420  54.3513 305.7986 15.19905404179576
1 44942U 20001AE  23098.29560267  .00010156  00000-0  48101-3 0  9995
2 44942  53.0517  61.6857 0005420  54.3513 305.7986 15.19905404179576
1 44942U 20001AE  23099.28194634  .00010059  00000-0  47630-3 0  9994
2 44942  53.0527  57.1640 0005490  56.8674 303.2847 15.19926352179720
1 44942U 20001AE  23100.26827639  .00010835  00000-0  51148-3 0  9994
2 44942  53.0533  52.6426 0005559  59.3830 300.7712 15.19948662179874
1 44942U 20001AE  23100.26827639  .00010835  00000-0  51148-3 0  9994
2 44942  53.0533  52.6426 0005559  59.3830 300.7712 15.19948662179874
1 44942U 20001AE  23101.12308380  .00011416  00000-0  53775-3 0  9991
2 44942  53.0538  48.7242 0005638  61.6700 298.4863 15.19968987180000
1 44942U 20001AE  23102.10938632  .00011701  00000-0  55043-3 0  9996
2 44942  53.0549  44.2037 0005744  63.3130 296.8452 15.19992585180152
1 44942U 20001AE  23102.56965510  .00011040  00000-0  52005-3 0  9992
2 44942  53.0551  42.0937 0005766  64.3417 295.8173 15.20003225180226
1 44942U 20001AE  23103.09567377  .00011658  00000-0  54808-3 0  9998
2 44942  53.0557  39.6826 0005795  65.9232 294.2368 15.20015298180306
1 44942U 20001AE  23104.21343710  .00038315  00000-0  17573-2 0  9992
2 44942  53.0551  34.5560 0005886  71.1866 288.9767 15.20086523180472
1 44942U 20001AE  23104.21343710  .00038315  00000-0  17573-2 0  9992
2 44942  53.0551  34.5560 0005886  71.1866 288.9767 15.20086523180472
1 44942U 20001AE  23105.19964777  .00025907  00000-0  11930-2 0  9996
2 44942  53.0563  30.0353 0005879  72.4057 287.7580 15.20145437180621
1 44942U 20001AE  23105.19964777  .00025907  00000-0  11930-2 0  9996
2 44942  53.0563  30.0353 0005879  72.4057 287.7580 15.20145437180621
1 44942U 20001AE  23105.92285718  .00019357  00000-0  89551-3 0  9995
2 44942  53.0564  26.7197 0005788  72.3241 287.8385 15.20160802180732
1 44942U 20001AE  23106.18583880  .00017780  00000-0  82371-3 0  9996
2 44942  53.0565  25.5136 0005792  72.9562 287.2067 15.20170371180777
1 44942U 20001AE  23106.90903493  .00013824  00000-0  64380-3 0  9997
2 44942  53.0574  22.1967 0005875  75.7973 284.3674 15.20185614180881
1 44942U 20001AE  23107.17201218  .00014346  00000-0  66733-3 0  9997
2 44942  53.0575  20.9910 0005917  76.7030 283.4624 15.20194497180927
1 44942U 20001AE  23107.76371684  .00007735  00000-0  36697-3 0  9997
2 44942  53.0580  18.2792 0006053  79.0621 281.1055 15.20192319181010
1 44942U 20001AE  23107.89520659  .00006100  00000-0  29267-3 0  9999
2 44942  53.0575  17.6752 0005948  78.6990 281.4673 15.20187969181035
1 44942U 20001AE  23108.15818477  .00004125  00000-0  20274-3 0  9991
2 44942  53.0576  16.4693 0005970  79.3684 280.7983 15.20188385181073
1 44942U 20001AE  23108.15818477  .00004125  00000-0  20274-3 0  9991
2 44942  53.0576  16.4693 0005970  79.3684 280.7983 15.20188385181073
1 44942U 20001AE  23109.14434194  .00008862  00000-0  41798-3 0  9997
2 44942  53.0585  11.9477 0005928  82.0038 278.1629 15.20212431181225
1 44942U 20001AE  23110.06474084  .00012594  00000-0  58700-3 0  9990
2 44942  53.0586   7.7275 0005938  84.5104 275.6568 15.20239929181367
1 44942U 20001AE  23111.11661018  .00010060  00000-0  47177-3 0  9994
2 44942  53.0587   2.9042 0005915  87.1911 272.9761 15.20260665181521
1 44942U 20001AE  23111.11661018  .00010060  00000-0  47177-3 0  9994
2 44942  53.0587   2.9042 0005915  87.1911 272.9761 15.20260665181521
1 44942U 20001AE  23111.70828039  .00009219  00000-0  43349-3 0  9998
2 44942  53.0585   0.1910 0005888  88.7243 271.4426 15.20270981181611
1 44942U 20001AE  23112.10272416  .00009757  00000-0  45775-3 0  9997
2 44942  53.0586 358.3822 0005875  89.7973 270.3695 15.20279990181670
1 44942U 20001AE  23112.95734587  .00008948  00000-0  42087-3 0  9996
2 44942  53.0586 354.4628 0005832  92.3856 267.7807 15.20295902181805
1 44942U 20001AE  23113.68048015  .00009331  00000-0  43804-3 0  9996
2 44942  53.0587 351.1465 0005807  94.4041 265.7617 15.20310720181915
1 44942U 20001AE  23113.94343592  .00023450  00000-0  10756-2 0  9990
2 44942  53.0587 349.9406 0005820  95.2047 264.9612 15.20337160181952
1 44942U 20001AE  23113.94343592  .00023450  00000-0  10756-2 0  9990
2 44942  53.0587 349.9406 0005820  95.2047 264.9612 15.20337160181952
1 44942U 20001AE  23114.66655349  .00023279  00000-0  10672-2 0  9992
2 44942  53.0589 346.6245 0005788  97.3955 262.7698 15.20359687182064
1 44942U 20001AE  23114.66655349  .00023279  00000-0  10672-2 0  9992
2 44942  53.0589 346.6245 0005788  97.3955 262.7698 15.20359687182064
1 44942U 20001AE  23115.91556085  .00007448  00000-0  35214-3 0  9998
2 44942  53.0593 340.8961 0005785 101.3134 258.8511 15.20367978182255
1 44942U 20001AE  23116.63866313  .00006103  00000-0  29124-3 0  9996
2 44942  53.0586 337.5790 0005612 102.5482 257.6141 15.20375711182360
1 44942U 20001AE  23117.62470337  .00007146  00000-0  33828-3 0  9997
2 44942  53.0586 333.0567 0005561 105.5637 254.5972 15.20390948182515
1 44942U 20001AE  23118.61073382  .00006841  00000-0  32436-3 0  9991
2 44942  53.0586 328.5342 0005612 109.1900 250.9703 15.20405285182664
1 44942U 20001AE  23118.87367347  .00007264  00000-0  34340-3 0  9992
2 44942  53.0584 327.3284 0005606 110.0016 250.1583 15.20409924182703
1 44942U 20001AE  23119.26808194  .00006714  00000-0  31850-3 0  9998
2 44942  53.0581 325.5193 0005549 110.8915 249.2675 15.20415186182765
1 44942U 20001AE  23120.05689396  .00007304  00000-0  34506-3 0  9995
2 44942  53.0577 321.9013 0005521 113.2051 246.9527 15.20428220182885
1 44942U 20001AE  23120.58276573  .00006289  00000-0  29916-3 0  9992
2 44942  53.0573 319.4891 0005510 115.0149 245.1419 15.20434152182964
1 44942U 20001AE  23120.97716746  .00006752  00000-0  32001-3 0  9990
2 44942  53.0572 317.6801 0005487 116.0438 244.1123 15.20440680183021
1 44942U 20001AE  23121.76596774  .00005709  00000-0  27283-3 0  9992
2 44942  53.0570 314.0620 0005487 119.0476 241.1070 15.20449201183143
1 44942U 20001AE  23121.89743413  .00005773  00000-0  27570-3 0  9990
2 44942  53.0570 313.4590 0005469 119.2733 240.8809 15.20450745183163
1 44942U 20001AE  23121.89743413  .00005773  00000-0  27570-3 0  9990
2 44942  53.0570 313.4590 0005469 119.2733 240.8809 15.20450745183163
1 44942U 20001AE  23122.81769202  .00006989  00000-0  33045-3 0  9991
2 44942  53.0569 309.2374 0005506 123.2377 236.9147 15.20465331183309
1 44942U 20001AE  23123.21208628  .00006157  00000-0  29288-3 0  9997
2 44942  53.0567 307.4275 0005395 123.2052 236.9461 15.20469851183369
1 44942U 20001AE  23123.21208628  .00006157  00000-0  29288-3 0  9997
2 44942  53.0567 307.4275 0005395 123.2052 236.9461 15.20469851183369
1 44942U 20001AE  23123.86940637  .00006721  00000-0  31826-3 0  9999
2 44942  53.0563 304.4124 0005374 125.5901 234.5595 15.20479994183462
1 44942U 20001AE  23124.19806503  .00006365  00000-0  30213-3 0  9992
2 44942  53.0561 302.9047 0005319 126.2445 233.9043 15.20484160183515
1 44942U 20001AE  23124.85537915  .00007014  00000-0  33132-3 0  9998
2 44942  53.0557 299.8891 0005293 128.1015 232.0458 15.20494336183613
1 44942U 20001AE  23124.85537915  .00007014  00000-0  33132-3 0  9998
2 44942  53.0557 299.8891 0005293 128.1015 232.0458 15.20494336183613
1 44942U 20001AE  23125.84134186  .00007668  00000-0  36065-3 0  9994
2 44942  53.0554 295.3663 0005252 131.3225 228.8222 15.20510247183760
1 44942U 20001AE  23126.17000221  .00001463  00000-0  80821-4 0  9990
2 44942  53.0553 293.8585 0005424 130.2386 229.9084 15.20497240183813
1 44942U 20001AE  23126.43292591  .00003105  00000-0  15495-3 0  9991
2 44942  53.0547 292.6518 0005318 131.3944 228.7508 15.20500693183852
1 44942U 20001AE  23127.15596918  .00004651  00000-0  22468-3 0  9996
2 44942  53.0548 289.3345 0005315 134.0695 226.0739 15.20500954183963
1 44942U 20001AE  23127.74754578  .00007660  00000-0  36027-3 0  9998
2 44942  53.0539 286.6203 0005192 135.8950 224.2459 15.20510021184058
1 44942U 20001AE  23127.74754578  .00007660  00000-0  36027-3 0  9998
2 44942  53.0539 286.6203 0005192 135.8950 224.2459 15.20510021184058
1 44942U 20001AE  23128.79922616  .00009629  00000-0  44874-3 0  9990
2 44942  53.0537 281.7957 0005091 140.9003 219.2361 15.20531078184211
1 44942U 20001AE  23128.79922616  .00009629  00000-0  44874-3 0  9990
2 44942  53.0537 281.7957 0005091 140.9003 219.2361 15.20531078184211
1 44942U 20001AE  23129.58797865  .00009120  00000-0  42566-3 0  9996
2 44942  53.0532 278.1771 0005045 143.1967 216.9375 15.20544091184334
1 44942U 20001AE  23130.50818014  .00009693  00000-0  45120-3 0  9994
2 44942  53.0531 273.9559 0005044 146.0563 214.0756 15.20561842184473
